{
  "type": "FeatureCollection",
  "features": [
    {
      "type": "Feature",
      "properties": {
        "norad_id": 64694,
        "name": "GOSAT-GW (IBUKI GW)",
        "group": "resource",
        "lat": -73.83701735400128,
        "lon": -41.62159957884688,
        "alt_km": 677.1123913383008,
        "timestamp": "2025-12-19T18:58:41.250262+00:00",
        "meta_object_name": "GOSAT-GW (IBUKI GW)",
        "meta_object_id": "2025-141A",
        "meta_epoch": "2025-12-19T06:13:58.726272",
        "meta_mean_motion": 14.67563799,
        "meta_eccentricity": 0.00014465,
        "meta_inclination": 98.0433,
        "meta_ra_of_asc_node": 288.6545,
        "meta_arg_of_pericenter": 84.0351,
        "meta_mean_anomaly": 276.1018,
        "meta_ephemeris_type": 0,
        "meta_classification_type": "U",
        "meta_norad_cat_id": 64694,
        "meta_element_set_no": 999,
        "meta_rev_at_epoch": 2545,
        "meta_bstar": 8.0558211e-05,
        "meta_mean_motion_dot": 4.09e-06,
        "meta_mean_motion_ddot": 0,
        "tle_line1": "1 64694U 25141A   25353.25970748  .00000409  00000+0  80558-4 0  9994",
        "tle_line2": "2 64694  98.0433 288.6545 0001446  84.0351 276.1018 14.67563799 25450"
      },
      "geometry": {
        "type": "Point",
        "coordinates": [
          -41.62159957884688,
          -73.83701735400128
        ]
      }
    },
    {
      "type": "Feature",
      "properties": {
        "norad_id": 64876,
        "name": "IONOSFERA-M 3",
        "group": "resource",
        "lat": -17.707835863572726,
        "lon": 132.69481645148184,
        "alt_km": 826.6696164036666,
        "timestamp": "2025-12-19T18:58:41.250272+00:00",
        "meta_object_name": "IONOSFERA-M 3",
        "meta_object_id": "2025-155A",
        "meta_epoch": "2025-12-19T06:13:29.713152",
        "meta_mean_motion": 14.21442537,
        "meta_eccentricity": 0.00020538,
        "meta_inclination": 98.5791,
        "meta_ra_of_asc_node": 314.9412,
        "meta_arg_of_pericenter": 49.5292,
        "meta_mean_anomaly": 310.6065,
        "meta_ephemeris_type": 0,
        "meta_classification_type": "U",
        "meta_norad_cat_id": 64876,
        "meta_element_set_no": 999,
        "meta_rev_at_epoch": 2084,
        "meta_bstar": 3.8571783e-05,
        "meta_mean_motion_dot": 4.2e-07,
        "meta_mean_motion_ddot": 0,
        "tle_line1": "1 64876U 25155A   25353.25937168  .00000042  00000+0  38572-4 0  9992",
        "tle_line2": "2 64876  98.5791 314.9412 0002053  49.5292 310.6065 14.21442537 20845"
      },
      "geometry": {
        "type": "Point",
        "coordinates": [
          132.69481645148184,
          -17.707835863572726
        ]
      }
    },
    {
      "type": "Feature",
      "properties": {
        "norad_id": 64877,
        "name": "IONOSFERA-M 4",
        "group": "resource",
        "lat": 18.142347222617175,
        "lon": -47.45826665779355,
        "alt_km": 819.9372163974176,
        "timestamp": "2025-12-19T18:58:41.250282+00:00",
        "meta_object_name": "IONOSFERA-M 4",
        "meta_object_id": "2025-155B",
        "meta_epoch": "2025-12-19T07:03:58.987872",
        "meta_mean_motion": 14.21443724,
        "meta_eccentricity": 0.0001449,
        "meta_inclination": 98.579,
        "meta_ra_of_asc_node": 314.8947,
        "meta_arg_of_pericenter": 57.0217,
        "meta_mean_anomaly": 303.11,
        "meta_ephemeris_type": 0,
        "meta_classification_type": "U",
        "meta_norad_cat_id": 64877,
        "meta_element_set_no": 999,
        "meta_rev_at_epoch": 2084,
        "meta_bstar": 3.86025e-05,
        "meta_mean_motion_dot": 4.2e-07,
        "meta_mean_motion_ddot": 0,
        "tle_line1": "1 64877U 25155B   25353.29443273  .00000042  00000+0  38603-4 0  9991",
        "tle_line2": "2 64877  98.5790 314.8947 0001449  57.0217 303.1100 14.21443724 20842"
      },
      "geometry": {
        "type": "Point",
        "coordinates": [
          -47.45826665779355,
          18.142347222617175
        ]
      }
    },
    {
      "type": "Feature",
      "properties": {
        "norad_id": 64899,
        "name": "MICROCARB",
        "group": "resource",
        "lat": 15.418455778157554,
        "lon": 66.79958439187936,
        "alt_km": 658.9859102699538,
        "timestamp": "2025-12-19T18:58:41.250292+00:00",
        "meta_object_name": "MICROCARB",
        "meta_object_id": "2025-156A",
        "meta_epoch": "2025-12-19T04:13:31.325664",
        "meta_mean_motion": 14.72067053,
        "meta_eccentricity": 0.00174512,
        "meta_inclination": 98.0019,
        "meta_ra_of_asc_node": 68.4182,
        "meta_arg_of_pericenter": 125.3542,
        "meta_mean_anomaly": 234.9299,
        "meta_ephemeris_type": 0,
        "meta_classification_type": "U",
        "meta_norad_cat_id": 64899,
        "meta_element_set_no": 999,
        "meta_rev_at_epoch": 2148,
        "meta_bstar": 9.0323864e-05,
        "meta_mean_motion_dot": 5.19e-06,
        "meta_mean_motion_ddot": 0,
        "tle_line1": "1 64899U 25156A   25353.17605701  .00000519  00000+0  90324-4 0  9996",
        "tle_line2": "2 64899  98.0019  68.4182 0017451 125.3542 234.9299 14.72067053 21482"
      },
      "geometry": {
        "type": "Point",
        "coordinates": [
          66.79958439187936,
          15.418455778157554
        ]
      }
    },
    {
      "type": "Feature",
      "properties": {
        "norad_id": 64900,
        "name": "CO3D 3",
        "group": "resource",
        "lat": -17.191229551681804,
        "lon": -112.25818145262281,
        "alt_km": 510.6953896274845,
        "timestamp": "2025-12-19T18:58:41.250302+00:00",
        "meta_object_name": "CO3D 3",
        "meta_object_id": "2025-156B",
        "meta_epoch": "2025-12-19T07:03:18.489600",
        "meta_mean_motion": 15.20199127,
        "meta_eccentricity": 0.00013916,
        "meta_inclination": 97.4345,
        "meta_ra_of_asc_node": 69.5675,
        "meta_arg_of_pericenter": 80.8271,
        "meta_mean_anomaly": 279.3121,
        "meta_ephemeris_type": 0,
        "meta_classification_type": "U",
        "meta_norad_cat_id": 64900,
        "meta_element_set_no": 999,
        "meta_rev_at_epoch": 2220,
        "meta_bstar": 0.00028053722,
        "meta_mean_motion_dot": 6.01e-05,
        "meta_mean_motion_ddot": 0,
        "tle_line1": "1 64900U 25156B   25353.29396400  .00006010  00000+0  28054-3 0  9997",
        "tle_line2": "2 64900  97.4345  69.5675 0001391  80.8271 279.3121 15.20199127 22209"
      },
      "geometry": {
        "type": "Point",
        "coordinates": [
          -112.25818145262281,
          -17.191229551681804
        ]
      }
    },
    {
      "type": "Feature",
      "properties": {
        "norad_id": 64901,
        "name": "CO3D 4",
        "group": "resource",
        "lat": -16.427265342745113,
        "lon": -112.1491777901191,
        "alt_km": 509.2702077358326,
        "timestamp": "2025-12-19T18:58:41.250312+00:00",
        "meta_object_name": "CO3D 4",
        "meta_object_id": "2025-156C",
        "meta_epoch": "2025-12-19T07:03:31.130784",
        "meta_mean_motion": 15.20228377,
        "meta_eccentricity": 0.00012978,
        "meta_inclination": 97.4346,
        "meta_ra_of_asc_node": 69.5677,
        "meta_arg_of_pericenter": 174.2875,
        "meta_mean_anomaly": 185.8375,
        "meta_ephemeris_type": 0,
        "meta_classification_type": "U",
        "meta_norad_cat_id": 64901,
        "meta_element_set_no": 999,
        "meta_rev_at_epoch": 2220,
        "meta_bstar": 0.00021957229,
        "meta_mean_motion_dot": 4.692e-05,
        "meta_mean_motion_ddot": 0,
        "tle_line1": "1 64901U 25156C   25353.29411031  .00004692  00000+0  21957-3 0  9995",
        "tle_line2": "2 64901  97.4346  69.5677 0001297 174.2875 185.8375 15.20228377 22208"
      },
      "geometry": {
        "type": "Point",
        "coordinates": [
          -112.1491777901191,
          -16.427265342745113
        ]
      }
    },
    {
      "type": "Feature",
      "properties": {
        "norad_id": 64902,
        "name": "CO3D 2",
        "group": "resource",
        "lat": 18.445548772389788,
        "lon": 67.45931360923109,
        "alt_km": 505.3146761706612,
        "timestamp": "2025-12-19T18:58:41.250322+00:00",
        "meta_object_name": "CO3D 2",
        "meta_object_id": "2025-156D",
        "meta_epoch": "2025-12-18T23:56:22.431840",
        "meta_mean_motion": 15.20201426,
        "meta_eccentricity": 6.127e-05,
        "meta_inclination": 97.4339,
        "meta_ra_of_asc_node": 69.1735,
        "meta_arg_of_pericenter": 62.3895,
        "meta_mean_anomaly": 297.7402,
        "meta_ephemeris_type": 0,
        "meta_classification_type": "U",
        "meta_norad_cat_id": 64902,
        "meta_element_set_no": 999,
        "meta_rev_at_epoch": 2215,
        "meta_bstar": 2.1688322e-05,
        "meta_mean_motion_dot": 4.02e-06,
        "meta_mean_motion_ddot": 0,
        "tle_line1": "1 64902U 25156D   25352.99748185  .00000402  00000+0  21688-4 0  9992",
        "tle_line2": "2 64902  97.4339  69.1735 0000612  62.3895 297.7402 15.20201426 22155"
      },
      "geometry": {
        "type": "Point",
        "coordinates": [
          67.45931360923109,
          18.445548772389788
        ]
      }
    }
  ]
}